ORBCOMM FM115           
1 41186U 15081H   25285.13632502  .00001073  00000+0  24271-3 0  9998
2 41186  46.9981 203.2614 0001332 263.5610  96.5125 14.62736295524890
ORBCOMM FM108           
1 41187U 15081J   25285.26367516  .00001101  00000+0  27179-3 0  9995
2 41187  47.0049 273.9912 0001522 148.9822 211.1154 14.58387242523889
ORBCOMM FM117           
1 41188U 15081K   25285.22998475  .00001090  00000+0  26929-3 0  9995
2 41188  47.0007 272.8742 0002213 159.6096 200.4878 14.58389351523925
ORBCOMM FM116           
1 41189U 15081L   25285.21316985  .00001437  00000+0  34297-3 0  9997
2 41189  47.0039   2.7503 0002128 312.1040  47.9665 14.58466936522737
